{
  "type": "FeatureCollection",
  "features": [
    {
      "type": "Feature",
      "properties": {
        "norad_id": 66584,
        "name": "STARLINK-35939",
        "group": "last-30-days",
        "lat": -32.89349800673176,
        "lon": 74.68818005295849,
        "alt_km": 416.7609111704287,
        "timestamp": "2025-12-13T03:42:10.037053+00:00",
        "meta_object_name": "STARLINK-35939",
        "meta_object_id": "2025-268AD",
        "meta_epoch": "2025-12-12T06:00:00.999648",
        "meta_mean_motion": 15.50480412,
        "meta_eccentricity": 0.00014866,
        "meta_inclination": 43.0001,
        "meta_ra_of_asc_node": 123.9317,
        "meta_arg_of_pericenter": 272.583,
        "meta_mean_anomaly": 20.8895,
        "meta_ephemeris_type": 0,
        "meta_classification_type": "U",
        "meta_norad_cat_id": 66584,
        "meta_element_set_no": 999,
        "meta_rev_at_epoch": 459,
        "meta_bstar": 0.0018545127,
        "meta_mean_motion_dot": 0.00109604,
        "meta_mean_motion_ddot": 0,
        "tle_line1": "1 66584U 25268AD  25346.25001157  .00109604  00000+0  18545-2 0  9997",
        "tle_line2": "2 66584  43.0001 123.9317 0001486 272.5830  20.8895 15.50480412  4591"
      },
      "geometry": {
        "type": "Point",
        "coordinates": [
          74.68818005295849,
          -32.89349800673176
        ]
      }
    },
    {
      "type": "Feature",
      "properties": {
        "norad_id": 66585,
        "name": "STARLINK-35963",
        "group": "last-30-days",
        "lat": -31.93886139444804,
        "lon": 76.64928358636183,
        "alt_km": 416.7749796836415,
        "timestamp": "2025-12-13T03:42:10.037063+00:00",
        "meta_object_name": "STARLINK-35963",
        "meta_object_id": "2025-268AE",
        "meta_epoch": "2025-12-12T06:00:00.999648",
        "meta_mean_motion": 15.50527522,
        "meta_eccentricity": 0.00017954,
        "meta_inclination": 43.0002,
        "meta_ra_of_asc_node": 123.9278,
        "meta_arg_of_pericenter": 261.1321,
        "meta_mean_anomaly": 34.2304,
        "meta_ephemeris_type": 0,
        "meta_classification_type": "U",
        "meta_norad_cat_id": 66585,
        "meta_element_set_no": 999,
        "meta_rev_at_epoch": 459,
        "meta_bstar": 0.00108338,
        "meta_mean_motion_dot": 0.00063617,
        "meta_mean_motion_ddot": 0,
        "tle_line1": "1 66585U 25268AE  25346.25001157  .00063617  00000+0  10834-2 0  9994",
        "tle_line2": "2 66585  43.0002 123.9278 0001795 261.1321  34.2304 15.50527522  4599"
      },
      "geometry": {
        "type": "Point",
        "coordinates": [
          76.64928358636183,
          -31.93886139444804
        ]
      }
    },
    {
      "type": "Feature",
      "properties": {
        "norad_id": 66586,
        "name": "TJS-21",
        "group": "last-30-days",
        "lat": 20.590013958931994,
        "lon": -28.627056637797317,
        "alt_km": 13049.869433159583,
        "timestamp": "2025-12-13T03:42:10.037075+00:00",
        "meta_object_name": "TJS-21",
        "meta_object_id": "2025-269A",
        "meta_epoch": "2025-12-10T17:31:22.184832",
        "meta_mean_motion": 2.00567425,
        "meta_eccentricity": 0.6805766,
        "meta_inclination": 63.269,
        "meta_ra_of_asc_node": 162.5612,
        "meta_arg_of_pericenter": 269.7806,
        "meta_mean_anomaly": 18.6565,
        "meta_ephemeris_type": 0,
        "meta_classification_type": "U",
        "meta_norad_cat_id": 66586,
        "meta_element_set_no": 999,
        "meta_rev_at_epoch": 39,
        "meta_bstar": -0.044965385,
        "meta_mean_motion_dot": 1.083e-05,
        "meta_mean_motion_ddot": 0,
        "tle_line1": "1 66586U 25269A   25344.73011788  .00001083  00000+0 -44965-1 0  9999",
        "tle_line2": "2 66586  63.2690 162.5612 6805766 269.7806  18.6565  2.00567425   392"
      },
      "geometry": {
        "type": "Point",
        "coordinates": [
          -28.627056637797317,
          20.590013958931994
        ]
      }
    },
    {
      "type": "Feature",
      "properties": {
        "norad_id": 66587,
        "name": "CZ-3B R/B",
        "group": "last-30-days",
        "lat": 51.20356715045573,
        "lon": -104.53775359486136,
        "alt_km": 21340.179003041827,
        "timestamp": "2025-12-13T03:42:10.037092+00:00",
        "meta_object_name": "CZ-3B R/B",
        "meta_object_id": "2025-269B",
        "meta_epoch": "2025-12-10T19:33:40.006368",
        "meta_mean_motion": 2.03086829,
        "meta_eccentricity": 0.7519519,
        "meta_inclination": 51.3442,
        "meta_ra_of_asc_node": 170.0917,
        "meta_arg_of_pericenter": 228.3676,
        "meta_mean_anomaly": 37.5722,
        "meta_ephemeris_type": 0,
        "meta_classification_type": "U",
        "meta_norad_cat_id": 66587,
        "meta_element_set_no": 999,
        "meta_rev_at_epoch": 41,
        "meta_bstar": 0.0011692039,
        "meta_mean_motion_dot": 0.00057137,
        "meta_mean_motion_ddot": 1.092514e-06,
        "tle_line1": "1 66587U 25269B   25344.81504637  .00057137  10925-5  11692-2 0  9994",
        "tle_line2": "2 66587  51.3442 170.0917 7519519 228.3676  37.5722  2.03086829   418"
      },
      "geometry": {
        "type": "Point",
        "coordinates": [
          -104.53775359486136,
          51.20356715045573
        ]
      }
    },
    {
      "type": "Feature",
      "properties": {
        "norad_id": 66588,
        "name": "STARLINK-36076",
        "group": "last-30-days",
        "lat": 17.463864774555926,
        "lon": -9.346069985866169,
        "alt_km": 438.26369791008347,
        "timestamp": "2025-12-13T03:42:10.037106+00:00",
        "meta_object_name": "STARLINK-36076",
        "meta_object_id": "2025-270A",
        "meta_epoch": "2025-12-12T06:00:00.999648",
        "meta_mean_motion": 15.45980255,
        "meta_eccentricity": 0.00012976,
        "meta_inclination": 42.9997,
        "meta_ra_of_asc_node": 195.6227,
        "meta_arg_of_pericenter": 269.8695,
        "meta_mean_anomaly": 251.8633,
        "meta_ephemeris_type": 0,
        "meta_classification_type": "U",
        "meta_norad_cat_id": 66588,
        "meta_element_set_no": 999,
        "meta_rev_at_epoch": 432,
        "meta_bstar": -0.047349924,
        "meta_mean_motion_dot": -0.0209681,
        "meta_mean_motion_ddot": 0,
        "tle_line1": "1 66588U 25270A   25346.25001157 -.02096810  00000+0 -47350-1 0  9997",
        "tle_line2": "2 66588  42.9997 195.6227 0001297 269.8695 251.8633 15.45980255  4322"
      },
      "geometry": {
        "type": "Point",
        "coordinates": [
          -9.346069985866169,
          17.463864774555926
        ]
      }
    },
    {
      "type": "Feature",
      "properties": {
        "norad_id": 66589,
        "name": "STARLINK-35447",
        "group": "last-30-days",
        "lat": -5.321458386794953,
        "lon": 16.038055548208447,
        "alt_km": 415.9756750383103,
        "timestamp": "2025-12-13T03:42:10.037117+00:00",
        "meta_object_name": "STARLINK-35447",
        "meta_object_id": "2025-270B",
        "meta_epoch": "2025-12-12T06:00:00.999648",
        "meta_mean_motion": 15.50619143,
        "meta_eccentricity": 0.00019812,
        "meta_inclination": 42.9999,
        "meta_ra_of_asc_node": 195.5916,
        "meta_arg_of_pericenter": 278.8889,
        "meta_mean_anomaly": 255.2166,
        "meta_ephemeris_type": 0,
        "meta_classification_type": "U",
        "meta_norad_cat_id": 66589,
        "meta_element_set_no": 999,
        "meta_rev_at_epoch": 443,
        "meta_bstar": -0.0014411082,
        "meta_mean_motion_dot": -0.00084107,
        "meta_mean_motion_ddot": 0,
        "tle_line1": "1 66589U 25270B   25346.25001157 -.00084107  00000+0 -14411-2 0  9995",
        "tle_line2": "2 66589  42.9999 195.5916 0001981 278.8889 255.2166 15.50619143  4436"
      },
      "geometry": {
        "type": "Point",
        "coordinates": [
          16.038055548208447,
          -5.321458386794953
        ]
      }
    },
    {
      "type": "Feature",
      "properties": {
        "norad_id": 66590,
        "name": "STARLINK-35429",
        "group": "last-30-days",
        "lat": -4.036109156132514,
        "lon": 14.649131798583237,
        "alt_km": 415.2610367459256,
        "timestamp": "2025-12-13T03:42:10.037127+00:00",
        "meta_object_name": "STARLINK-35429",
        "meta_object_id": "2025-270C",
        "meta_epoch": "2025-12-12T06:00:00.999648",
        "meta_mean_motion": 15.5068908,
        "meta_eccentricity": 0.00020381,
        "meta_inclination": 43,
        "meta_ra_of_asc_node": 195.5971,
        "meta_arg_of_pericenter": 255.8339,
        "meta_mean_anomaly": 276.2412,
        "meta_ephemeris_type": 0,
        "meta_classification_type": "U",
        "meta_norad_cat_id": 66590,
        "meta_element_set_no": 999,
        "meta_rev_at_epoch": 443,
        "meta_bstar": -0.0019608157,
        "meta_mean_motion_dot": -0.00114166,
        "meta_mean_motion_ddot": 0,
        "tle_line1": "1 66590U 25270C   25346.25001157 -.00114166  00000+0 -19608-2 0  9999",
        "tle_line2": "2 66590  43.0000 195.5971 0002038 255.8339 276.2412 15.50689080  4437"
      },
      "geometry": {
        "type": "Point",
        "coordinates": [
          14.649131798583237,
          -4.036109156132514
        ]
      }
    }
  ]
}